[{"OBJECT_NAME":"2026-027A","OBJECT_ID":"2026-027A","EPOCH":"2026-03-03T15:18:03.974400","MEAN_MOTION":15.17566749,"ECCENTRICITY":0.00098005,"INCLINATION":97.4897,"RA_OF_ASC_NODE":191.7156,"ARG_OF_PERICENTER":216.18,"MEAN_ANOMALY":143.8771,"EPHEMERIS_TYPE":0,"CLASSIFICATION_TYPE":"U","NORAD_CAT_ID":67746,"ELEMENT_SET_NO":999,"REV_AT_EPOCH":294,"BSTAR":0.00062656818,"MEAN_MOTION_DOT":0.00012541,"MEAN_MOTION_DDOT":0},{"OBJECT_NAME":"2026-027B","OBJECT_ID":"2026-027B","EPOCH":"2026-03-03T15:16:12.559872","MEAN_MOTION":15.1766713,"ECCENTRICITY":0.0009922,"INCLINATION":97.4892,"RA_OF_ASC_NODE":191.7158,"ARG_OF_PERICENTER":218.7116,"MEAN_ANOMALY":141.3408,"EPHEMERIS_TYPE":0,"CLASSIFICATION_TYPE":"U","NORAD_CAT_ID":67747,"ELEMENT_SET_NO":999,"REV_AT_EPOCH":294,"BSTAR":0.00061837625,"MEAN_MOTION_DOT":0.00012412,"MEAN_MOTION_DDOT":0},{"OBJECT_NAME":"2026-027C","OBJECT_ID":"2026-027C","EPOCH":"2026-03-03T15:14:18.624192","MEAN_MOTION":15.17715225,"ECCENTRICITY":0.00102569,"INCLINATION":97.4903,"RA_OF_ASC_NODE":191.7205,"ARG_OF_PERICENTER":221.2633,"MEAN_ANOMALY":138.7827,"EPHEMERIS_TYPE":0,"CLASSIFICATION_TYPE":"U","NORAD_CAT_ID":67748,"ELEMENT_SET_NO":999,"REV_AT_EPOCH":294,"BSTAR":0.00042719668,"MEAN_MOTION_DOT":8.562e-5,"MEAN_MOTION_DDOT":0},{"OBJECT_NAME":"2026-027D","OBJECT_ID":"2026-027D","EPOCH":"2026-03-03T15:10:34.398912","MEAN_MOTION":15.18005576,"ECCENTRICITY":0.00099644,"INCLINATION":97.4898,"RA_OF_ASC_NODE":191.723,"ARG_OF_PERICENTER":226.4374,"MEAN_ANOMALY":133.6033,"EPHEMERIS_TYPE":0,"CLASSIFICATION_TYPE":"U","NORAD_CAT_ID":67749,"ELEMENT_SET_NO":999,"REV_AT_EPOCH":289,"BSTAR":0.00070112448,"MEAN_MOTION_DOT":0.00014224,"MEAN_MOTION_DDOT":0},{"OBJECT_NAME":"2026-027E","OBJECT_ID":"2026-027E","EPOCH":"2026-03-03T15:10:37.745184","MEAN_MOTION":15.17974264,"ECCENTRICITY":0.00091678,"INCLINATION":97.491,"RA_OF_ASC_NODE":191.7259,"ARG_OF_PERICENTER":227.3004,"MEAN_ANOMALY":132.7459,"EPHEMERIS_TYPE":0,"CLASSIFICATION_TYPE":"U","NORAD_CAT_ID":67750,"ELEMENT_SET_NO":999,"REV_AT_EPOCH":294,"BSTAR":0.00062296362,"MEAN_MOTION_DOT":0.00012614,"MEAN_MOTION_DDOT":0},{"OBJECT_NAME":"2026-027F","OBJECT_ID":"2026-027F","EPOCH":"2026-03-03T15:08:09.682368","MEAN_MOTION":15.18229264,"ECCENTRICITY":0.00103347,"INCLINATION":97.4909,"RA_OF_ASC_NODE":191.7286,"ARG_OF_PERICENTER":227.9487,"MEAN_ANOMALY":132.0868,"EPHEMERIS_TYPE":0,"CLASSIFICATION_TYPE":"U","NORAD_CAT_ID":67751,"ELEMENT_SET_NO":999,"REV_AT_EPOCH":294,"BSTAR":0.00095333727,"MEAN_MOTION_DOT":0.00019506,"MEAN_MOTION_DDOT":0},{"OBJECT_NAME":"2026-027G","OBJECT_ID":"2026-027G","EPOCH":"2026-03-03T15:08:58.777440","MEAN_MOTION":15.1800732,"ECCENTRICITY":0.00094265,"INCLINATION":97.4905,"RA_OF_ASC_NODE":191.726,"ARG_OF_PERICENTER":228.1298,"MEAN_ANOMALY":131.9132,"EPHEMERIS_TYPE":0,"CLASSIFICATION_TYPE":"U","NORAD_CAT_ID":67752,"ELEMENT_SET_NO":999,"REV_AT_EPOCH":294,"BSTAR":0.00063740278,"MEAN_MOTION_DOT":0.00012921,"MEAN_MOTION_DDOT":0},{"OBJECT_NAME":"JIELONG-3 R/B","OBJECT_ID":"2026-027H","EPOCH":"2026-03-03T15:42:58.272768","MEAN_MOTION":15.69871418,"ECCENTRICITY":0.02330551,"INCLINATION":97.513,"RA_OF_ASC_NODE":193.2023,"ARG_OF_PERICENTER":267.0577,"MEAN_ANOMALY":90.3995,"EPHEMERIS_TYPE":0,"CLASSIFICATION_TYPE":"U","NORAD_CAT_ID":67753,"ELEMENT_SET_NO":999,"REV_AT_EPOCH":303,"BSTAR":0.00067565802,"MEAN_MOTION_DOT":0.00440898,"MEAN_MOTION_DDOT":2.37719e-6},{"OBJECT_NAME":"JIELONG-3 DEB","OBJECT_ID":"2026-027J","EPOCH":"2026-03-03T14:34:15.701952","MEAN_MOTION":15.91869844,"ECCENTRICITY":0.01636956,"INCLINATION":97.5068,"RA_OF_ASC_NODE":193.4171,"ARG_OF_PERICENTER":266.3385,"MEAN_ANOMALY":91.9156,"EPHEMERIS_TYPE":0,"CLASSIFICATION_TYPE":"U","NORAD_CAT_ID":67754,"ELEMENT_SET_NO":999,"REV_AT_EPOCH":298,"BSTAR":0.001299658,"MEAN_MOTION_DOT":0.01583635,"MEAN_MOTION_DDOT":2.442832e-6},{"OBJECT_NAME":"2026-028A","OBJECT_ID":"2026-028A","EPOCH":"2026-03-03T07:37:03.604512","MEAN_MOTION":0.995242,"ECCENTRICITY":0.00420062,"INCLINATION":0.4856,"RA_OF_ASC_NODE":289.5174,"ARG_OF_PERICENTER":229.3523,"MEAN_ANOMALY":201.2683,"EPHEMERIS_TYPE":0,"CLASSIFICATION_TYPE":"U","NORAD_CAT_ID":67756,"ELEMENT_SET_NO":999,"REV_AT_EPOCH":19,"BSTAR":0,"MEAN_MOTION_DOT":-4.5e-7,"MEAN_MOTION_DDOT":0},{"OBJECT_NAME":"JAM-E JAM 1","OBJECT_ID":"2026-028B","EPOCH":"2026-03-02T11:00:05.848128","MEAN_MOTION":1.00305295,"ECCENTRICITY":0.00051791,"INCLINATION":0.4889,"RA_OF_ASC_NODE":283.4606,"ARG_OF_PERICENTER":115.8284,"MEAN_ANOMALY":320.71,"EPHEMERIS_TYPE":0,"CLASSIFICATION_TYPE":"U","NORAD_CAT_ID":67757,"ELEMENT_SET_NO":999,"REV_AT_EPOCH":5,"BSTAR":0,"MEAN_MOTION_DOT":1.38e-6,"MEAN_MOTION_DDOT":0},{"OBJECT_NAME":"KUIPER-00159","OBJECT_ID":"2026-030A","EPOCH":"2026-03-03T13:55:02.905536","MEAN_MOTION":15.35440297,"ECCENTRICITY":0.00044722,"INCLINATION":51.8843,"RA_OF_ASC_NODE":248.6258,"ARG_OF_PERICENTER":28.2168,"MEAN_ANOMALY":331.906,"EPHEMERIS_TYPE":0,"CLASSIFICATION_TYPE":"U","NORAD_CAT_ID":67764,"ELEMENT_SET_NO":999,"REV_AT_EPOCH":415,"BSTAR":0.0010300725,"MEAN_MOTION_DOT":0.00035808,"MEAN_MOTION_DDOT":0},{"OBJECT_NAME":"KUIPER-00160","OBJECT_ID":"2026-030B","EPOCH":"2026-03-03T13:56:30.189408","MEAN_MOTION":15.35296692,"ECCENTRICITY":0.00046844,"INCLINATION":51.8807,"RA_OF_ASC_NODE":248.6248,"ARG_OF_PERICENTER":39.488,"MEAN_ANOMALY":320.6446,"EPHEMERIS_TYPE":0,"CLASSIFICATION_TYPE":"U","NORAD_CAT_ID":67765,"ELEMENT_SET_NO":999,"REV_AT_EPOCH":415,"BSTAR":0.00044247049,"MEAN_MOTION_DOT":0.0001505,"MEAN_MOTION_DDOT":0},{"OBJECT_NAME":"KUIPER-00177","OBJECT_ID":"2026-030C","EPOCH":"2026-03-03T13:40:33.120192","MEAN_MOTION":15.36228074,"ECCENTRICITY":8.492e-5,"INCLINATION":51.8824,"RA_OF_ASC_NODE":248.5575,"ARG_OF_PERICENTER":14.3984,"MEAN_ANOMALY":345.7026,"EPHEMERIS_TYPE":0,"CLASSIFICATION_TYPE":"U","NORAD_CAT_ID":67766,"ELEMENT_SET_NO":999,"REV_AT_EPOCH":415,"BSTAR":0.0011792514,"MEAN_MOTION_DOT":0.00042133,"MEAN_MOTION_DDOT":0},{"OBJECT_NAME":"KUIPER-00178","OBJECT_ID":"2026-030D","EPOCH":"2026-03-03T13:58:53.240160","MEAN_MOTION":15.35233856,"ECCENTRICITY":0.0005957,"INCLINATION":51.8831,"RA_OF_ASC_NODE":248.6406,"ARG_OF_PERICENTER":28.8527,"MEAN_ANOMALY":331.2788,"EPHEMERIS_TYPE":0,"CLASSIFICATION_TYPE":"U","NORAD_CAT_ID":67767,"ELEMENT_SET_NO":999,"REV_AT_EPOCH":415,"BSTAR":0.0010796456,"MEAN_MOTION_DOT":0.00037317,"MEAN_MOTION_DDOT":0},{"OBJECT_NAME":"KUIPER-00180","OBJECT_ID":"2026-030E","EPOCH":"2026-03-03T14:37:27.510816","MEAN_MOTION":15.3215312,"ECCENTRICITY":0.00150039,"INCLINATION":51.8796,"RA_OF_ASC_NODE":248.8057,"ARG_OF_PERICENTER":50.9423,"MEAN_ANOMALY":309.2894,"EPHEMERIS_TYPE":0,"CLASSIFICATION_TYPE":"U","NORAD_CAT_ID":67768,"ELEMENT_SET_NO":999,"REV_AT_EPOCH":415,"BSTAR":6.2217968e-5,"MEAN_MOTION_DOT":1.589e-5,"MEAN_MOTION_DDOT":0},{"OBJECT_NAME":"KUIPER-00197","OBJECT_ID":"2026-030F","EPOCH":"2026-03-03T13:43:25.590144","MEAN_MOTION":15.3609993,"ECCENTRICITY":0.00011202,"INCLINATION":51.8831,"RA_OF_ASC_NODE":248.5703,"ARG_OF_PERICENTER":60.0655,"MEAN_ANOMALY":300.0443,"EPHEMERIS_TYPE":0,"CLASSIFICATION_TYPE":"U","NORAD_CAT_ID":67769,"ELEMENT_SET_NO":999,"REV_AT_EPOCH":415,"BSTAR":0.00096561427,"MEAN_MOTION_DOT":0.00034251,"MEAN_MOTION_DDOT":0}]
